NORAD_CAT_ID,OBJECT_NAME,OBJECT_TYPE,EPOCH,MEAN_MOTION,ECCENTRICITY,INCLINATION,RA_OF_ASC_NODE,ARG_OF_PERICENTER,MEAN_ANOMALY,BSTAR,MEAN_MOTION_DOT,MEAN_MOTION_DDOT,TLE_LINE0,TLE_LINE1,TLE_LINE2,SEMIMAJOR_AXIS,PERIOD,APOGEE,PERIGEE,DECAYED
53977.0,STARLINK-5094,PAYLOAD,2024-02-28 19:22:55,15.08841639,0.000137,53.2151,300.6941,90.7807,269.3342,0.00013288,1.828e-05,0.0,0 STARLINK-5094,1 53977U 22125P   24059.80758477  .00001828  00000-0  13288-3 0  9993,2 53977  53.2151 300.6941 0001370  90.7807 269.3342 15.08841639 77766,6917.875,95.437,540.688,538.793,0.0
53977.0,STARLINK-5094,PAYLOAD,2024-02-28 22:33:41,15.08843039,0.0001366,53.2156,300.0993,87.9447,272.1702,0.00015229,2.137e-05,0.0,0 STARLINK-5094,1 53977U 22125P   24059.94006413  .00002137  00000-0  15229-3 0  9995,2 53977  53.2156 300.0993 0001366  87.9447 272.1702 15.08843039 77718,6917.871,95.437,540.681,538.791,0.0
53977.0,STARLINK-5094,PAYLOAD,2024-02-29 01:44:27,15.08840564,0.0001441,53.2162,299.5044,90.9147,269.201,0.00028702,4.283e-05,0.0,0 STARLINK-5094,1 53977U 22125P   24060.07254548  .00004283  00000-0  28702-3 0  9999,2 53977  53.2162 299.5044 0001441  90.9147 269.2010 15.08840564 77730,6917.879,95.438,540.741,538.747,0.0
53977.0,STARLINK-5094,PAYLOAD,2024-02-29 22:24:28,15.08840336,0.0001303,53.2172,295.6398,95.1547,264.9594,9.6307e-05,1.245e-05,0.0,0 STARLINK-5094,1 53977U 22125P   24060.93366509  .00001245  00000-0  96307-4 0  9997,2 53977  53.2172 295.6398 0001303  95.1547 264.9594 15.08840336 77868,6917.879,95.438,540.646,538.843,0.0
53977.0,STARLINK-5094,PAYLOAD,2024-03-01 01:35:14,15.08838434,0.0001342,53.217,295.0442,98.2428,261.8716,0.00014375,2.001e-05,0.0,0 STARLINK-5094,1 53977U 22125P   24061.06614508  .00002001  00000-0  14375-3 0  9992,2 53977  53.2170 295.0442 0001342  98.2428 261.8716 15.08838434 77953,6917.885,95.438,540.679,538.822,0.0
53977.0,STARLINK-5094,PAYLOAD,2024-03-01 20:39:52,15.08840119,0.0001368,53.2169,291.4753,96.5236,263.5912,3.6685e-05,2.96e-06,0.0,0 STARLINK-5094,1 53977U 22125P   24061.86102641  .00000296  00000-0  36685-4 0  9993,2 53977  53.2169 291.4753 0001368  96.5236 263.5912 15.08840119 78009,6917.88,95.438,540.691,538.799,0.0
53977.0,STARLINK-5094,PAYLOAD,2024-03-02 20:30:39,15.08840606,0.0001282,53.2164,287.014,93.9622,266.1516,7.2397e-05,8.65e-06,0.0,0 STARLINK-5094,1 53977U 22125P   24062.85462608  .00000865  00000-0  72397-4 0  9997,2 53977  53.2164 287.0140 0001282  93.9622 266.1516 15.08840606 78224,6917.879,95.438,540.63,538.857,0.0
53977.0,STARLINK-5094,PAYLOAD,2024-03-03 07:38:21,15.08845731,0.0001243,53.2165,284.934,85.3051,274.8083,9.9449e-05,1.295e-05,0.0,0 STARLINK-5094,1 53977U 22125P   24063.31830248  .00001295  00000-0  99449-4 0  9993,2 53977  53.2165 284.9340 0001243  85.3051 274.8083 15.08845731 78220,6917.863,95.437,540.588,538.868,0.0
53977.0,STARLINK-5094,PAYLOAD,2024-03-03 20:21:27,15.08835252,0.0001159,53.2171,282.5543,92.2622,267.8503,3.9178e-05,3.36e-06,0.0,0 STARLINK-5094,1 53977U 22125P   24063.84823152  .00000336  00000-0  39178-4 0  9995,2 53977  53.2171 282.5543 0001159  92.2622 267.8503 15.08835252 78375,6917.895,95.438,540.562,538.958,0.0
53977.0,STARLINK-5094,PAYLOAD,2024-03-03 23:32:12,15.08845681,0.0001273,53.2158,281.9595,80.2289,279.8847,0.00013761,1.903e-05,0.0,0 STARLINK-5094,1 53977U 22125P   24063.98070402  .00001903  00000-0  13761-3 0  9992,2 53977  53.2158 281.9595 0001273  80.2289 279.8847 15.08845681 78396,6917.863,95.437,540.609,538.847,0.0
53977.0,STARLINK-5094,PAYLOAD,2024-03-04 07:29:08,15.08846092,0.0001259,53.2149,280.4732,83.0312,277.0823,0.00015324,2.152e-05,0.0,0 STARLINK-5094,1 53977U 22125P   24064.31190262  .00002152  00000-0  15324-3 0  9991,2 53977  53.2149 280.4732 0001259  83.0312 277.0823 15.08846092 78374,6917.862,95.437,540.598,538.856,0.0
53977.0,STARLINK-5094,PAYLOAD,2024-03-04 20:12:13,15.08835253,0.0001367,53.216,278.0917,86.3602,273.7547,2.8685e-05,1.69e-06,0.0,0 STARLINK-5094,1 53977U 22125P   24064.84182864  .00000169  00000-0  28685-4 0  9999,2 53977  53.2160 278.0917 0001367  86.3602 273.7547 15.08835253 78523,6917.895,95.438,540.706,538.814,0.0
53977.0,STARLINK-5094,PAYLOAD,2024-03-04 21:47:37,15.08836371,0.0001497,53.2166,277.796,102.9218,257.1941,2.5867e-05,1.24e-06,0.0,0 STARLINK-5094,1 53977U 22125P   24064.90806780  .00000124  00000-0  25867-4 0  9996,2 53977  53.2166 277.7960 0001497 102.9218 257.1941 15.08836371 78464,6917.891,95.438,540.792,538.721,0.0
53977.0,STARLINK-5094,PAYLOAD,2024-03-05 13:41:28,15.08836446,0.0001396,53.2157,274.8235,81.6633,278.4517,0.00012462,1.696e-05,0.0,0 STARLINK-5094,1 53977U 22125P   24065.57046995  .00001696  00000-0  12462-3 0  9995,2 53977  53.2157 274.8235 0001396  81.6633 278.4517 15.08836446 78568,6917.891,95.438,540.722,538.791,0.0
53977.0,STARLINK-5094,PAYLOAD,2024-03-06 13:32:15,15.08840289,0.0001328,53.2159,270.3628,94.0111,266.1033,0.00011349,1.519e-05,0.0,0 STARLINK-5094,1 53977U 22125P   24066.56406764  .00001519  00000-0  11349-3 0  9996,2 53977  53.2159 270.3628 0001328  94.0111 266.1033 15.08840289 78715,6917.88,95.438,540.663,538.826,0.0
53977.0,STARLINK-5094,PAYLOAD,2024-03-06 19:53:48,15.0884008,0.0001391,53.2164,269.1737,92.5961,267.519,0.00010049,1.312e-05,0.0,0 STARLINK-5094,1 53977U 22125P   24066.82902913  .00001312  00000-0  10049-3 0  9999,2 53977  53.2164 269.1737 0001391  92.5961 267.5190 15.08840080 78824,6917.88,95.438,540.707,538.783,0.0
53977.0,STARLINK-5094,PAYLOAD,2024-03-07 07:01:29,15.08847817,0.0001238,53.2165,267.092,105.0658,255.0471,6.9702e-05,8.22e-06,0.0,0 STARLINK-5094,1 53977U 22125P   24067.29270388  .00000822  00000-0  69702-4 0  9991,2 53977  53.2165 267.0920 0001238 105.0658 255.0471 15.08847817 78828,6917.856,95.437,540.578,538.865,0.0
53977.0,STARLINK-5094,PAYLOAD,2024-03-08 13:13:49,15.08841561,0.0001592,53.2179,261.4415,101.8273,258.2898,7.8387e-05,9.6e-06,0.0,0 STARLINK-5094,1 53977U 22125P   24068.55127009  .00000960  00000-0  78387-4 0  9994,2 53977  53.2179 261.4415 0001592 101.8273 258.2898 15.08841561 79010,6917.876,95.437,540.842,538.639,0.0
53977.0,STARLINK-5094,PAYLOAD,2024-03-08 19:35:22,15.08840664,0.0001331,53.2165,260.2533,90.5605,269.5539,7.9448e-05,9.77e-06,0.0,0 STARLINK-5094,1 53977U 22125P   24068.81623072  .00000977  00000-0  79448-4 0  9991,2 53977  53.2165 260.2533 0001331  90.5605 269.5539 15.08840664 79129,6917.878,95.438,540.664,538.823,0.0
53977.0,STARLINK-5094,PAYLOAD,2024-03-09 13:04:37,15.08836046,0.0001599,53.2162,256.982,94.7391,265.3784,9.3948e-05,1.207e-05,0.0,0 STARLINK-5094,1 53977U 22125P   24069.54487335  .00001207  00000-0  93948-4 0  9990,2 53977  53.2162 256.9820 0001599  94.7391 265.3784 15.08836046 79160,6917.892,95.438,540.864,538.651,0.0
53977.0,STARLINK-5094,PAYLOAD,2024-03-09 19:26:09,15.08836755,0.0001523,53.2169,255.7914,96.5641,263.5525,8.5546e-05,1.074e-05,0.0,0 STARLINK-5094,1 53977U 22125P   24069.80983374  .00001074  00000-0  85546-4 0  9990,2 53977  53.2169 255.7914 0001523  96.5641 263.5525 15.08836755 79208,6917.89,95.438,540.809,538.702,0.0
53977.0,STARLINK-5094,PAYLOAD,2024-03-10 11:20:00,15.0883899,0.0001557,53.2155,252.8184,94.6666,265.4504,7.4556e-05,8.99e-06,0.0,0 STARLINK-5094,1 53977U 22125P   24070.47223352  .00000899  00000-0  74556-4 0  9991,2 53977  53.2155 252.8184 0001557  94.6666 265.4504 15.08838990 79305,6917.883,95.438,540.826,538.671,0.0
53977.0,STARLINK-5094,PAYLOAD,2024-03-10 19:16:56,15.08837384,5.05e-05,53.2175,251.3313,2.6772,357.4223,6.9711e-05,8.22e-06,0.0,0 STARLINK-5094,1 53977U 22125P   24070.80343557  .00000822  00000-0  69711-4 0  9991,2 53977  53.2175 251.3313 0000505   2.6772 357.4223 15.08837384 79355,6917.888,95.438,540.103,539.404,0.0
53977.0,STARLINK-5094,PAYLOAD,2024-03-11 04:49:15,15.08842112,7.7e-05,53.2138,249.5443,36.1173,323.9871,8.6018e-05,1.082e-05,0.0,0 STARLINK-5094,1 53977U 22125P   24071.20087158  .00001082  00000-0  86018-4 0  9996,2 53977  53.2138 249.5443 0000770  36.1173 323.9871 15.08842112 79484,6917.874,95.437,540.272,539.206,0.0
53977.0,STARLINK-5094,PAYLOAD,2024-03-11 20:43:07,15.08835455,0.0001307,53.2195,246.5738,78.135,281.9789,5.7036e-05,6.2e-06,0.0,0 STARLINK-5094,1 53977U 22125P   24071.86327952  .00000620  00000-0  57036-4 0  9992,2 53977  53.2195 246.5738 0001307  78.1350 281.9789 15.08835455 79585,6917.894,95.438,540.663,538.855,0.0
53977.0,STARLINK-5094,PAYLOAD,2024-03-12 17:23:08,15.08835495,8.93e-05,53.2146,242.707,82.3983,277.711,7.3998e-05,8.9e-06,0.0,0 STARLINK-5094,1 53977U 22125P   24072.72439936  .00000890  00000-0  73998-4 0  9998,2 53977  53.2146 242.7070 0000893  82.3983 277.7110 15.08835495 79648,6917.894,95.438,540.377,539.141,0.0
53977.0,STARLINK-5094,PAYLOAD,2024-03-13 04:30:48,15.08863507,0.0001327,53.2162,240.6262,90.3887,269.7257,-0.00023398,-4.012e-05,0.0,0 STARLINK-5094,1 53977U 22125P   24073.18806706 -.00004012  00000-0 -23398-3 0  9992,2 53977  53.2162 240.6262 0001327  90.3887 269.7257 15.08863507 79784,6917.809,95.436,540.592,538.756,0.0
53977.0,STARLINK-5094,PAYLOAD,2024-03-13 10:52:22,15.08837615,0.0001782,53.2151,239.437,85.7775,274.3421,9.8096e-05,1.273e-05,0.0,0 STARLINK-5094,1 53977U 22125P   24073.45303961  .00001273  00000-0  98096-4 0  9999,2 53977  53.2151 239.4370 0001782  85.7775 274.3421 15.08837615 79828,6917.888,95.438,540.985,538.52,0.0
53977.0,STARLINK-5094,PAYLOAD,2024-03-13 17:13:55,15.08825633,0.0001728,53.2141,238.2469,90.5125,269.6065,0.00034001,5.125e-05,0.0,0 STARLINK-5094,1 53977U 22125P   24073.71800487  .00005125  00000-0  34001-3 0  9998,2 53977  53.2141 238.2469 0001728  90.5125 269.6065 15.08825633 79868,6917.924,95.438,540.985,538.594,0.0
53977.0,STARLINK-5094,PAYLOAD,2024-03-14 04:21:36,15.08843776,0.0001773,53.2135,236.1636,94.1081,266.0114,9.0172e-05,1.147e-05,0.0,0 STARLINK-5094,1 53977U 22125P   24074.18167597  .00001147  00000-0  90172-4 0  9990,2 53977  53.2135 236.1636 0001773  94.1081 266.0114 15.08843776 79937,6917.869,95.437,540.96,538.507,0.0
